NORAD_CAT_ID,OBJECT_NAME,OBJECT_TYPE,EPOCH,MEAN_MOTION,ECCENTRICITY,INCLINATION,RA_OF_ASC_NODE,ARG_OF_PERICENTER,MEAN_ANOMALY,BSTAR,MEAN_MOTION_DOT,MEAN_MOTION_DDOT,TLE_LINE0,TLE_LINE1,TLE_LINE2,SEMIMAJOR_AXIS,PERIOD,APOGEE,PERIGEE,DECAYED
51463.0,STARLINK-3419,PAYLOAD,2023-10-21 05:07:20,15.08836326,0.0001728,53.2191,226.8349,101.9304,258.1882,-6.1357e-05,-1.264e-05,0.0,0 STARLINK-3419,1 51463U 22010H   23294.21343433 -.00001264  00000-0 -61357-4 0  9998,2 51463  53.2191 226.8349 0001728 101.9304 258.1882 15.08836326 95103,6917.892,95.438,540.952,538.561,0.0
51463.0,STARLINK-3419,PAYLOAD,2023-10-21 19:25:47,15.08856256,0.000156,53.2187,224.162,108.3328,251.7834,1.33e-05,-7.6e-07,0.0,0 STARLINK-3419,1 51463U 22010H   23294.80958004 -.00000076  00000-0  13300-4 0  9993,2 51463  53.2187 224.1620 0001560 108.3328 251.7834 15.08856256 95944,6917.831,95.437,540.775,538.617,0.0
51463.0,STARLINK-3419,PAYLOAD,2023-10-22 01:47:18,15.08871392,0.0001349,53.218,222.9749,92.6667,267.4479,0.00014454,2.015e-05,0.0,0 STARLINK-3419,1 51463U 22010H   23295.07452316  .00002015  00000-0  14454-3 0  9992,2 51463  53.2180 222.9749 0001349  92.6667 267.4479 15.08871392 95982,6917.784,95.436,540.583,538.716,0.0
51463.0,STARLINK-3419,PAYLOAD,2023-10-22 12:55:02,15.08846568,0.0001573,53.2185,220.8946,71.5225,288.5938,-8.6304e-05,-1.662e-05,0.0,0 STARLINK-3419,1 51463U 22010H   23295.53822085 -.00001662  00000-0 -86304-4 0  9990,2 51463  53.2185 220.8946 0001573  71.5225 288.5938 15.08846568 95305,6917.86,95.437,540.813,538.637,0.0
51463.0,STARLINK-3419,PAYLOAD,2023-10-22 22:27:23,15.08816877,0.0001392,53.2169,219.1109,91.9764,268.1388,-0.00012141,-2.218e-05,0.0,0 STARLINK-3419,1 51463U 22010H   23295.93568810 -.00002218  00000-0 -12141-3 0  9992,2 51463  53.2169 219.1109 0001392  91.9764 268.1388 15.08816877 95361,6917.951,95.439,540.779,538.853,0.0
51463.0,STARLINK-3419,PAYLOAD,2023-10-23 01:38:09,15.08817957,0.0001631,53.2179,218.5155,94.1663,265.9516,-5.5265e-05,-1.167e-05,0.0,0 STARLINK-3419,1 51463U 22010H   23296.06816748 -.00001167  00000-0 -55265-4 0  9990,2 51463  53.2179 218.5155 0001631  94.1663 265.9516 15.08817957 96139,6917.948,95.439,540.941,538.684,0.0
51463.0,STARLINK-3419,PAYLOAD,2023-10-23 22:18:08,15.08849041,0.0001598,53.2181,214.6499,91.9801,268.1374,-9.1158e-05,-1.739e-05,0.0,0 STARLINK-3419,1 51463U 22010H   23296.92927061 -.00001739  00000-0 -91158-4 0  9992,2 51463  53.2181 214.6499 0001598  91.9801 268.1374 15.08849041 95518,6917.853,95.437,540.823,538.612,0.0
51463.0,STARLINK-3419,PAYLOAD,2023-10-24 04:39:40,15.08860563,0.0001467,53.2177,213.4605,79.4902,280.6256,1.0283e-05,-1.24e-06,0.0,0 STARLINK-3419,1 51463U 22010H   23297.19421919 -.00000124  00000-0  10283-4 0  9999,2 51463  53.2177 213.4605 0001467  79.4902 280.6256 15.08860563 96305,6917.818,95.436,540.697,538.668,0.0
51463.0,STARLINK-3419,PAYLOAD,2023-10-24 11:01:13,15.08847798,0.0001823,53.2172,212.2708,83.658,276.462,-0.00010363,-1.937e-05,0.0,0 STARLINK-3419,1 51463U 22010H   23297.45918889 -.00001937  00000-0 -10363-3 0  9997,2 51463  53.2172 212.2708 0001823  83.6580 276.4620 15.08847798 96343,6917.857,95.437,540.983,538.46,0.0
51463.0,STARLINK-3419,PAYLOAD,2023-10-25 21:59:43,15.08842605,0.0001558,53.2165,205.7257,85.8611,274.2559,-7.2274e-05,-1.438e-05,0.0,0 STARLINK-3419,1 51463U 22010H   23298.91647583 -.00001438  00000-0 -72274-4 0  9995,2 51463  53.2165 205.7257 0001558  85.8611 274.2559 15.08842605 96568,6917.872,95.437,540.815,538.66,0.0
51463.0,STARLINK-3419,PAYLOAD,2023-10-26 04:21:15,15.08846486,0.0001552,53.2166,204.5394,92.2881,267.8289,-1.2326e-05,-4.84e-06,0.0,0 STARLINK-3419,1 51463U 22010H   23299.18143157 -.00000484  00000-0 -12326-4 0  9995,2 51463  53.2166 204.5394 0001552  92.2881 267.8289 15.08846486 95853,6917.861,95.437,540.799,538.652,0.0
51463.0,STARLINK-3419,PAYLOAD,2023-10-26 21:50:30,15.08842087,0.0001481,53.2161,201.2679,91.1669,268.9493,8.7541e-05,1.106e-05,0.0,0 STARLINK-3419,1 51463U 22010H   23299.91007156  .00001106  00000-0  87541-4 0  9995,2 51463  53.2161 201.2679 0001481  91.1669 268.9493 15.08842087 95965,6917.874,95.437,540.764,538.714,0.0
51463.0,STARLINK-3419,PAYLOAD,2023-10-27 02:36:38,15.0885677,0.0001651,53.2161,200.3762,101.2315,258.8863,2.6076e-05,1.27e-06,0.0,0 STARLINK-3419,1 51463U 22010H   23300.10877823  .00000127  00000-0  26076-4 0  9993,2 51463  53.2161 200.3762 0001651 101.2315 258.8863 15.08856770 96748,6917.829,95.436,540.836,538.552,0.0
51463.0,STARLINK-3419,PAYLOAD,2023-10-27 10:33:34,15.08847318,0.0001823,53.2156,198.8883,88.9027,271.2174,-3.9987e-05,-9.25e-06,0.0,0 STARLINK-3419,1 51463U 22010H   23300.43998393 -.00000925  00000-0 -39987-4 0  9998,2 51463  53.2156 198.8883 0001823  88.9027 271.2174 15.08847318 96796,6917.858,95.437,540.984,538.462,0.0
51463.0,STARLINK-3419,PAYLOAD,2023-10-27 16:55:07,15.08838734,0.0002067,53.2146,197.7027,90.8071,269.3158,0.00018649,2.681e-05,0.0,0 STARLINK-3419,1 51463U 22010H   23300.70495198  .00002681  00000-0  18649-3 0  9993,2 51463  53.2146 197.7027 0002067  90.8071 269.3158 15.08838734 96832,6917.884,95.438,541.179,538.319,0.0
51463.0,STARLINK-3419,PAYLOAD,2023-10-27 23:16:40,15.08828756,0.0001249,53.2151,196.5111,99.9087,260.2046,-5.4793e-05,-1.159e-05,0.0,0 STARLINK-3419,1 51463U 22010H   23300.96991656 -.00001159  00000-0 -54793-4 0  9993,2 51463  53.2151 196.5111 0001249  99.9087 260.2046 15.08828756 96128,6917.915,95.438,540.644,538.916,0.0
51463.0,STARLINK-3419,PAYLOAD,2023-10-28 10:24:22,15.08829697,0.0001506,53.2159,194.4292,91.6101,268.5064,-2.3388e-05,-6.6e-06,0.0,0 STARLINK-3419,1 51463U 22010H   23301.43359861 -.00000660  00000-0 -23388-4 0  9994,2 51463  53.2159 194.4292 0001506  91.6101 268.5064 15.08829697 96941,6917.912,95.438,540.819,538.735,0.0
51463.0,STARLINK-3419,PAYLOAD,2023-10-28 23:07:28,15.08836266,0.0001388,53.2152,192.0509,94.9085,265.2065,0.00013461,1.855e-05,0.0,0 STARLINK-3419,1 51463U 22010H   23301.96352001  .00001855  00000-0  13461-3 0  9996,2 51463  53.2152 192.0509 0001388  94.9085 265.2065 15.08836266 96275,6917.892,95.438,540.717,538.797,0.0
51463.0,STARLINK-3419,PAYLOAD,2023-10-29 02:18:14,15.08844714,0.0001514,53.2151,191.4547,96.6206,263.4958,0.00029162,4.357e-05,0.0,0 STARLINK-3419,1 51463U 22010H   23302.09599744  .00004357  00000-0  29162-3 0  9993,2 51463  53.2151 191.4547 0001514  96.6206 263.4958 15.08844714 97048,6917.866,95.437,540.778,538.684,0.0
51463.0,STARLINK-3419,PAYLOAD,2023-10-29 10:15:09,15.08844411,0.0001562,53.2156,189.9671,96.4157,263.7013,0.00031718,4.764e-05,0.0,0 STARLINK-3419,1 51463U 22010H   23302.42719865  .00004764  00000-0  31718-3 0  9990,2 51463  53.2156 189.9671 0001562  96.4157 263.7013 15.08844411 96340,6917.867,95.437,540.812,538.651,0.0
51463.0,STARLINK-3419,PAYLOAD,2023-10-29 22:58:14,15.08854942,0.0001679,53.2163,187.5862,108.5967,251.5207,0.00051322,7.893e-05,0.0,0 STARLINK-3419,1 51463U 22010H   23302.95711467  .00007893  00000-0  51322-3 0  9997,2 51463  53.2163 187.5862 0001679 108.5967 251.5207 15.08854942 96426,6917.835,95.437,540.861,538.538,0.0
51463.0,STARLINK-3419,PAYLOAD,2023-10-30 21:13:39,15.08841018,0.0001592,53.2149,183.4258,104.0676,256.0493,7.9336e-05,9.75e-06,0.0,0 STARLINK-3419,1 51463U 22010H   23303.88447972  .00000975  00000-0  79336-4 0  9997,2 51463  53.2149 183.4258 0001592 104.0676 256.0493 15.08841018 97312,6917.877,95.437,540.844,538.641,0.0
51463.0,STARLINK-3419,PAYLOAD,2023-10-31 01:59:48,15.08839119,0.0001484,53.2156,182.5336,93.323,266.7932,5.1964e-05,5.39e-06,0.0,0 STARLINK-3419,1 51463U 22010H   23304.08320097  .00000539  00000-0  51964-4 0  9991,2 51463  53.2156 182.5336 0001484  93.3230 266.7932 15.08839119 96597,6917.883,95.438,540.775,538.721,0.0
51463.0,STARLINK-3419,PAYLOAD,2023-10-31 22:39:49,15.08851529,0.000147,53.2161,178.6694,80.0742,280.0416,0.00059551,9.205e-05,0.0,0 STARLINK-3419,1 51463U 22010H   23304.94431967  .00009205  00000-0  59551-3 0  9993,2 51463  53.2161 178.6694 0001470  80.0742 280.0416 15.08851529 96722,6917.845,95.437,540.727,538.693,0.0
51463.0,STARLINK-3419,PAYLOAD,2023-11-01 01:50:35,15.0885615,0.0001476,53.216,178.0743,78.9551,281.1607,0.00066726,0.00010352,0.0,0 STARLINK-3419,1 51463U 22010H   23305.07679796  .00010352  00000-0  66726-3 0  9999,2 51463  53.2160 178.0743 0001476  78.9551 281.1607 15.08856150 97494,6917.831,95.437,540.717,538.675,0.0
51463.0,STARLINK-3419,PAYLOAD,2023-11-01 08:12:07,15.08846911,0.0001378,53.2152,176.882,74.3142,285.8002,0.00044634,6.824e-05,0.0,0 STARLINK-3419,1 51463U 22010H   23305.34175915  .00006824  00000-0  44634-3 0  9996,2 51463  53.2152 176.8820 0001378  74.3142 285.8002 15.08846911 97533,6917.859,95.437,540.678,538.771,0.0
51463.0,STARLINK-3419,PAYLOAD,2023-11-01 20:55:13,15.08839553,0.000148,53.2157,174.5041,75.7394,284.3763,5.1743e-05,5.36e-06,0.0,0 STARLINK-3419,1 51463U 22010H   23305.87167968  .00000536  00000-0  51743-4 0  9997,2 51463  53.2157 174.5041 0001480  75.7394 284.3763 15.08839553 97617,6917.882,95.438,540.771,538.723,0.0
51463.0,STARLINK-3419,PAYLOAD,2023-11-01 22:30:36,15.08844344,0.0001367,53.2157,174.2095,88.0682,272.0467,0.00016642,2.362e-05,0.0,0 STARLINK-3419,1 51463U 22010H   23305.93791789  .00002362  00000-0  16642-3 0  9995,2 51463  53.2157 174.2095 0001367  88.0682 272.0467 15.08844344 96870,6917.867,95.437,540.678,538.786,0.0
51463.0,STARLINK-3419,PAYLOAD,2023-11-02 14:24:27,15.08841184,0.0001612,53.2168,171.2383,90.2404,269.8773,5.8417e-06,-1.95e-06,0.0,0 STARLINK-3419,1 51463U 22010H   23306.60031824 -.00000195  00000-0  58417-5 0  9998,2 51463  53.2168 171.2383 0001612  90.2404 269.8773 15.08841184 96973,6917.877,95.437,540.857,538.627,0.0
51463.0,STARLINK-3419,PAYLOAD,2023-11-02 22:21:23,15.08840729,0.0001401,53.2156,169.7494,87.5168,272.5985,-5.8668e-05,-1.222e-05,0.0,0 STARLINK-3419,1 51463U 22010H   23306.93151916 -.00001222  00000-0 -58668-4 0  9999,2 51463  53.2156 169.7494 0001401  87.5168 272.5985 15.08840729 97024,6917.878,95.438,540.712,538.774,0.0
